COMMENT,ORIGINATOR,NORAD_CAT_ID,OBJECT_NAME,OBJECT_TYPE,CLASSIFICATION_TYPE,INTLDES,EPOCH,EPOCH_MICROSECONDS,MEAN_MOTION,ECCENTRICITY,INCLINATION,RA_OF_ASC_NODE,ARG_OF_PERICENTER,MEAN_ANOMALY,EPHEMERIS_TYPE,ELEMENT_SET_NO,REV_AT_EPOCH,BSTAR,MEAN_MOTION_DOT,MEAN_MOTION_DDOT,FILE,TLE_LINE0,TLE_LINE1,TLE_LINE2,OBJECT_ID,OBJECT_NUMBER,SEMIMAJOR_AXIS,PERIOD,APOGEE,PERIGEE,DECAYED
"GENERATED VIA SPACETRACK.ORG API","18 SPCS","48897","SPACEBEE-109","PAYLOAD","U","21059U","2022-07-02 08:05:57","151392","15.16260367","0.0010141","97.5592","313.0268","61.2602","298.9648","0","999","5619","0.00023905","0.00004563","0","3506647","0 SPACEBEE-109","1 48897U 21059U   22183.33746703  .00004563  00000-0  23905-3 0  9992","2 48897  97.5592 313.0268 0010141  61.2602 298.9648 15.16260367 56196","2021-059U","48897","6895.292","94.970","524.149","510.164","0"
"GENERATED VIA SPACETRACK.ORG API","18 SPCS","48897","SPACEBEE-109","PAYLOAD","U","21059U","2022-07-02 14:26:04","452288","15.16264884","0.0010129","97.5593","313.2897","60.4611","299.763","0","999","5623","0.00027687","0.00005296","0","3506929","0 SPACEBEE-109","1 48897U 21059U   22183.60144042  .00005296  00000-0  27687-3 0  9995","2 48897  97.5593 313.2897 0010129  60.4611 299.7630 15.16264884 56237","2021-059U","48897","6895.278","94.970","524.127","510.159","0"
"GENERATED VIA SPACETRACK.ORG API","18 SPCS","48897","SPACEBEE-109","PAYLOAD","U","21059U","2022-07-03 14:11:31","530624","15.16276174","0.001005","97.5593","314.2757","57.3744","302.8457","0","999","5638","0.00029674","0.00005683","0","3507188","0 SPACEBEE-109","1 48897U 21059U   22184.59133716  .00005683  00000-0  29674-3 0  9998","2 48897  97.5593 314.2757 0010050  57.3744 302.8457 15.16276174 56382","2021-059U","48897","6895.244","94.970","524.039","510.179","0"
"GENERATED VIA SPACETRACK.ORG API","18 SPCS","48897","SPACEBEE-109","PAYLOAD","U","21059U","2022-07-03 20:31:38","613792","15.16280157","0.0010013","97.5592","314.5387","56.5139","303.7049","0","999","5642","0.00031123","0.00005965","0","3507292","0 SPACEBEE-109","1 48897U 21059U   22184.85530803  .00005965  00000-0  31123-3 0  9990","2 48897  97.5592 314.5387 0010013  56.5139 303.7049 15.16280157 56429","2021-059U","48897","6895.232","94.969","524.001","510.193","0"
"GENERATED VIA SPACETRACK.ORG API","18 SPCS","48897","SPACEBEE-109","PAYLOAD","U","21059U","2022-07-04 07:36:50","895072","15.16286939","0.0009977","97.5593","314.9989","55.0562","305.1606","0","999","5649","0.000333","0.00006389","0","3507601","0 SPACEBEE-109","1 48897U 21059U   22185.31725573  .00006389  00000-0  33300-3 0  9992","2 48897  97.5593 314.9989 0009977  55.0562 305.1606 15.16286939 56499","2021-059U","48897","6895.211","94.969","523.956","510.197","0"
"GENERATED VIA SPACETRACK.ORG API","18 SPCS","48897","SPACEBEE-109","PAYLOAD","U","21059U","2022-07-04 20:17:04","709760","15.16294071","0.0009923","97.5591","315.5249","53.5305","306.6841","0","999","5657","0.00033563","0.00006441","0","3507663","0 SPACEBEE-109","1 48897U 21059U   22185.84519340  .00006441  00000-0  33563-3 0  9993","2 48897  97.5591 315.5249 0009923  53.5305 306.6841 15.16294071 56574","2021-059U","48897","6895.190","94.968","523.897","510.213","0"
"GENERATED VIA SPACETRACK.ORG API","18 SPCS","48897","SPACEBEE-109","PAYLOAD","U","21059U","2022-07-04 21:52:06","417696","15.16294982","0.0009907","97.559","315.5906","53.2877","306.9264","0","999","5658","0.00033621","0.00006452","0","3507746","0 SPACEBEE-109","1 48897U 21059U   22185.91118539  .00006452  00000-0  33621-3 0  9993","2 48897  97.5590 315.5906 0009907  53.2877 306.9264 15.16294982 56580","2021-059U","48897","6895.187","94.968","523.883","510.221","0"
"GENERATED VIA SPACETRACK.ORG API","18 SPCS","48897","SPACEBEE-109","PAYLOAD","U","21059U","2022-07-05 07:22:16","653216","15.16300565","0.000991","97.5592","315.985","52.0597","308.153","0","999","5664","0.00035321","0.00006783","0","3508171","0 SPACEBEE-109","1 48897U 21059U   22186.30713719  .00006783  00000-0  35321-3 0  9994","2 48897  97.5592 315.9850 0009910  52.0597 308.1530 15.16300565 56646","2021-059U","48897","6895.170","94.968","523.868","510.202","0"
"GENERATED VIA SPACETRACK.ORG API","18 SPCS","48897","SPACEBEE-109","PAYLOAD","U","21059U","2022-07-05 20:02:30","106752","15.16307317","0.0009901","97.5591","316.5109","50.5366","309.6741","0","999","5672","0.0003462","0.00006649","0","3508487","0 SPACEBEE-109","1 48897U 21059U   22186.83507068  .00006649  00000-0  34620-3 0  9992","2 48897  97.5591 316.5109 0009901  50.5366 309.6741 15.16307317 56727","2021-059U","48897","6895.150","94.968","523.841","510.188","0"
"GENERATED VIA SPACETRACK.ORG API","18 SPCS","48897","SPACEBEE-109","PAYLOAD","U","21059U","2022-07-06 08:42:43","339968","15.16313159","0.0009879","97.5591","317.0368","48.8908","311.3176","0","999","5680","0.00031244","0.00005994","0","3508782","0 SPACEBEE-109","1 48897U 21059U   22187.36300162  .00005994  00000-0  31244-3 0  9998","2 48897  97.5591 317.0368 0009879  48.8908 311.3176 15.16313159 56808","2021-059U","48897","6895.132","94.967","523.808","510.185","0"
"GENERATED VIA SPACETRACK.ORG API","18 SPCS","48897","SPACEBEE-109","PAYLOAD","U","21059U","2022-07-06 15:02:49","877088","15.16317332","0.0009868","97.5591","317.2998","48.0929","312.1143","0","999","5684","0.00033672","0.00006466","0","3509059","0 SPACEBEE-109","1 48897U 21059U   22187.62696617  .00006466  00000-0  33672-3 0  9992","2 48897  97.5591 317.2998 0009868  48.0929 312.1143 15.16317332 56846","2021-059U","48897","6895.119","94.967","523.788","510.180","0"
"GENERATED VIA SPACETRACK.ORG API","18 SPCS","48897","SPACEBEE-109","PAYLOAD","U","21059U","2022-07-07 08:28:07","640544","15.16324267","0.0009811","97.5589","318.0229","45.8496","314.3542","0","999","5695","0.00028046","0.00005375","0","3509155","0 SPACEBEE-109","1 48897U 21059U   22188.35286621  .00005375  00000-0  28046-3 0  9990","2 48897  97.5589 318.0229 0009811  45.8496 314.3542 15.16324267 56955","2021-059U","48897","6895.098","94.966","523.728","510.198","0"
"GENERATED VIA SPACETRACK.ORG API","18 SPCS","48897","SPACEBEE-109","PAYLOAD","U","21059U","2022-07-07 08:28:07","640544","15.16324267","0.0009811","97.5589","318.0229","45.8496","314.3542","0","999","5695","0.00028046","0.00005375","0","3509293","0 SPACEBEE-109","1 48897U 21059U   22188.35286621  .00005375  00000-0  28046-3 0  9990","2 48897  97.5589 318.0229 0009811  45.8496 314.3542 15.16324267 56955","2021-059U","48897","6895.098","94.966","523.728","510.198","0"
"GENERATED VIA SPACETRACK.ORG API","18 SPCS","48897","SPACEBEE-109","PAYLOAD","U","21059U","2022-07-07 21:08:20","253408","15.16335959","0.0009772","97.5588","318.5488","44.0677","316.1332","0","999","5703","0.00040949","0.00007884","0","3509470","0 SPACEBEE-109","1 48897U 21059U   22188.88078997  .00007884  00000-0  40949-3 0  9996","2 48897  97.5588 318.5488 0009772  44.0677 316.1332 15.16335959 57031","2021-059U","48897","6895.063","94.966","523.666","510.190","0"
"GENERATED VIA SPACETRACK.ORG API","18 SPCS","48897","SPACEBEE-109","PAYLOAD","U","21059U","2022-07-08 08:13:31","90944","15.16341581","0.0009738","97.5588","319.009","42.6176","317.581","0","999","5710","0.00037978","0.00007308","0","3509949","0 SPACEBEE-109","1 48897U 21059U   22189.34272096  .00007308  00000-0  37978-3 0  9993","2 48897  97.5588 319.0090 0009738  42.6176 317.5810 15.16341581 57108","2021-059U","48897","6895.046","94.965","523.625","510.196","0"
"GENERATED VIA SPACETRACK.ORG API","18 SPCS","48897","SPACEBEE-109","PAYLOAD","U","21059U","2022-07-08 14:33:37","183968","15.16346328","0.0009718","97.5586","319.272","41.8994","318.2981","0","999","5714","0.00040122","0.00007725","0","3509984","0 SPACEBEE-109","1 48897U 21059U   22189.60668037  .00007725  00000-0  40122-3 0  9994","2 48897  97.5586 319.2720 0009718  41.8994 318.2981 15.16346328 57140","2021-059U","48897","6895.031","94.965","523.597","510.196","0"
"GENERATED VIA SPACETRACK.ORG API","18 SPCS","48897","SPACEBEE-109","PAYLOAD","U","21059U","2022-07-08 19:18:41","677056","15.16349782","0.0009685","97.5586","319.4691","41.1824","319.0138","0","999","5717","0.00038239","0.0000736","0","3510087","0 SPACEBEE-109","1 48897U 21059U   22189.80464904  .00007360  00000-0  38239-3 0  9994","2 48897  97.5586 319.4691 0009685  41.1824 319.0138 15.16349782 57170","2021-059U","48897","6895.021","94.965","523.564","510.208","0"
"GENERATED VIA SPACETRACK.ORG API","18 SPCS","48897","SPACEBEE-109","PAYLOAD","U","21059U","2022-07-09 07:58:53","546880","15.16357523","0.0009625","97.5586","319.995","39.2985","320.8945","0","999","5725","0.00033857","0.00006509","0","3510582","0 SPACEBEE-109","1 48897U 21059U   22190.33256420  .00006509  00000-0  33857-3 0  9991","2 48897  97.5586 319.9950 0009625  39.2985 320.8945 15.16357523 57250","2021-059U","48897","6894.997","94.964","523.499","510.226","0"
"GENERATED VIA SPACETRACK.ORG API","18 SPCS","48897","SPACEBEE-109","PAYLOAD","U","21059U","2022-07-09 22:14:06","571680","15.16368499","0.0009551","97.5586","320.5865","37.1492","323.04","0","999","5734","0.0003667","0.00007058","0","3510761","0 SPACEBEE-109","1 48897U 21059U   22190.92646495  .00007058  00000-0  36670-3 0  9997","2 48897  97.5586 320.5865 0009551  37.1492 323.0400 15.16368499 57346","2021-059U","48897","6894.964","94.964","523.414","510.244","0"
"GENERATED VIA SPACETRACK.ORG API","18 SPCS","48897","SPACEBEE-109","PAYLOAD","U","21059U","2022-07-10 07:44:15","150912","15.16372744","0.0009509","97.5587","320.9809","35.7486","324.4381","0","999","5740","0.00033361","0.00006415","0","3511121","0 SPACEBEE-109","1 48897U 21059U   22191.32239758  .00006415  00000-0  33361-3 0  9992","2 48897  97.5587 320.9809 0009509  35.7486 324.4381 15.16372744 57407","2021-059U","48897","6894.951","94.963","523.373","510.260","0"
